NORAD_CAT_ID,OBJECT_NAME,OBJECT_TYPE,EPOCH,MEAN_MOTION,ECCENTRICITY,INCLINATION,RA_OF_ASC_NODE,ARG_OF_PERICENTER,MEAN_ANOMALY,BSTAR,MEAN_MOTION_DOT,MEAN_MOTION_DDOT,TLE_LINE0,TLE_LINE1,TLE_LINE2,SEMIMAJOR_AXIS,PERIOD,APOGEE,PERIGEE,DECAYED
51975.0,STARLINK-3674,PAYLOAD,2023-03-31 04:59:49,15.10499937,0.0001612,53.1813,171.925,81.4286,278.6889,0.0012916,0.00021288,0.0,0 STARLINK-3674,1 51975U 22025V   23090.20821374  .00021288  00000-0  12916-2 0  9991,2 51975  53.1813 171.9250 0001612  81.4286 278.6889 15.10499937 60118,6912.811,95.333,535.791,533.562,0.0
51975.0,STARLINK-3674,PAYLOAD,2023-04-01 04:49:03,15.10500565,0.000256,53.1801,167.4559,65.2826,294.8433,0.0013016,0.00021457,0.0,0 STARLINK-3674,1 51975U 22025V   23091.20073190  .00021457  00000-0  13016-2 0  9997,2 51975  53.1801 167.4559 0002560  65.2826 294.8433 15.10500565 60261,6912.809,95.333,536.444,532.905,0.0
51975.0,STARLINK-3674,PAYLOAD,2023-04-01 14:20:44,15.10501403,0.0001562,53.1799,165.6629,63.035,297.0802,0.0022066,0.00036658,0.0,0 STARLINK-3674,1 51975U 22025V   23091.59773674  .00036658  00000-0  22066-2 0  9997,2 51975  53.1799 165.6629 0001562  63.0350 297.0802 15.10501403 60328,6912.807,95.333,535.752,533.592,0.0
51975.0,STARLINK-3674,PAYLOAD,2023-04-01 22:17:08,15.10511661,0.0001792,53.1794,164.1735,63.198,296.9196,0.0016279,0.00026938,0.0,0 STARLINK-3674,1 51975U 22025V   23091.92857195  .00026938  00000-0  16279-2 0  9994,2 51975  53.1794 164.1735 0001792  63.1980 296.9196 15.10511661 59262,6912.776,95.332,535.879,533.402,0.0
51975.0,STARLINK-3674,PAYLOAD,2023-04-02 14:09:55,15.1055276,0.0001857,53.1788,161.1922,64.7083,295.4101,0.0017913,0.00029717,0.0,0 STARLINK-3674,1 51975U 22025V   23092.59022683  .00029717  00000-0  17913-2 0  9998,2 51975  53.1788 161.1922 0001857  64.7083 295.4101 15.10552760 59369,6912.65,95.329,535.799,533.231,0.0
51975.0,STARLINK-3674,PAYLOAD,2023-04-02 22:06:19,15.10518627,0.0001435,53.1791,159.7043,65.6339,294.4803,-0.00014399,-2.692e-05,0.0,0 STARLINK-3674,1 51975U 22025V   23092.92106212 -.00002692  00000-0 -14399-3 0  9997,2 51975  53.1791 159.7043 0001435  65.6339 294.4803 15.10518627 59414,6912.754,95.331,535.611,533.627,0.0
51975.0,STARLINK-3674,PAYLOAD,2023-04-03 04:27:27,15.10510627,0.0002551,53.1789,158.5101,83.0075,277.1207,0.00076467,0.00012472,0.0,0 STARLINK-3674,1 51975U 22025V   23093.18573455  .00012472  00000-0  76467-3 0  9992,2 51975  53.1789 158.5101 0002551  83.0075 277.1207 15.10510627 60560,6912.779,95.332,536.407,532.88,0.0
51975.0,STARLINK-3674,PAYLOAD,2023-04-03 10:48:34,15.10491134,0.0001612,53.178,157.3179,85.494,274.6237,0.0010607,0.00017416,0.0,0 STARLINK-3674,1 51975U 22025V   23093.45040487  .00017416  00000-0  10607-2 0  9992,2 51975  53.1780 157.3179 0001612  85.4940 274.6237 15.10491134 60608,6912.838,95.333,535.817,533.589,0.0
51975.0,STARLINK-3674,PAYLOAD,2023-04-03 13:59:08,15.10494148,0.000162,53.1782,156.7219,84.9244,275.1933,0.0015225,0.00025156,0.0,0 STARLINK-3674,1 51975U 22025V   23093.58273992  .00025156  00000-0  15225-2 0  9996,2 51975  53.1782 156.7219 0001620  84.9244 275.1933 15.10494148 59513,6912.829,95.333,535.814,533.574,0.0
51975.0,STARLINK-3674,PAYLOAD,2023-04-03 15:34:25,15.10495527,0.0001594,53.1778,156.4232,83.6495,276.4679,0.0016205,0.00026802,0.0,0 STARLINK-3674,1 51975U 22025V   23093.64890732  .00026802  00000-0  16205-2 0  9998,2 51975  53.1778 156.4232 0001594  83.6495 276.4679 15.10495527 59528,6912.825,95.333,535.792,533.588,0.0
51975.0,STARLINK-3674,PAYLOAD,2023-04-04 10:37:47,15.10515368,0.0001675,53.1772,152.8483,82.6137,277.5046,0.0015398,0.00025462,0.0,0 STARLINK-3674,1 51975U 22025V   23094.44291343  .00025462  00000-0  15398-2 0  9993,2 51975  53.1772 152.8483 0001675  82.6137 277.5046 15.10515368 60755,6912.764,95.332,535.787,533.471,0.0
51975.0,STARLINK-3674,PAYLOAD,2023-04-04 15:23:37,15.10515443,0.0001782,53.1763,151.9514,93.7044,266.4152,0.00096304,0.00015793,0.0,0 STARLINK-3674,1 51975U 22025V   23094.64141173  .00015793  00000-0  96304-3 0  9993,2 51975  53.1763 151.9514 0001782  93.7044 266.4152 15.10515443 59677,6912.764,95.332,535.861,533.397,0.0
51975.0,STARLINK-3674,PAYLOAD,2023-04-05 04:05:53,15.1048992,0.0001707,53.1762,149.5664,87.7135,272.4052,9.3676e-06,-1.37e-06,0.0,0 STARLINK-3674,1 51975U 22025V   23095.17075489 -.00000137  00000-0  93676-5 0  9996,2 51975  53.1762 149.5664 0001707  87.7135 272.4052 15.10489920 60865,6912.842,95.333,535.887,533.527,0.0
51975.0,STARLINK-3674,PAYLOAD,2023-04-05 10:27:00,15.10495198,0.0001535,53.1759,148.3744,95.1876,264.9291,0.00032911,5.193e-05,0.0,0 STARLINK-3674,1 51975U 22025V   23095.43542350  .00005193  00000-0  32911-3 0  9990,2 51975  53.1759 148.3744 0001535  95.1876 264.9291 15.10495198 59796,6912.826,95.333,535.752,533.63,0.0
51975.0,STARLINK-3674,PAYLOAD,2023-04-05 19:58:41,15.10495449,0.0001614,53.1758,146.5834,102.8132,257.3041,0.00053425,8.617e-05,0.0,0 STARLINK-3674,1 51975U 22025V   23095.83242780  .00008617  00000-0  53425-3 0  9995,2 51975  53.1758 146.5834 0001614 102.8132 257.3041 15.10495449 59859,6912.825,95.333,535.806,533.574,0.0
51975.0,STARLINK-3674,PAYLOAD,2023-04-06 08:40:56,15.10505845,0.00017,53.1741,144.1982,106.8946,253.2233,0.0009356,0.0001533,0.0,0 STARLINK-3674,1 51975U 22025V   23096.36176197  .00015330  00000-0  93560-3 0  9996,2 51975  53.1741 144.1982 0001700 106.8946 253.2233 15.10505845 61046,6912.793,95.332,535.833,533.483,0.0
51975.0,STARLINK-3674,PAYLOAD,2023-04-06 13:26:46,15.10515918,0.0001371,53.1736,143.306,92.3116,267.8033,0.00089591,0.0001467,0.0,0 STARLINK-3674,1 51975U 22025V   23096.56026056  .00014670  00000-0  89591-3 0  9991,2 51975  53.1736 143.3060 0001371  92.3116 267.8033 15.10515918 59969,6912.763,95.332,535.575,533.68,0.0
51975.0,STARLINK-3674,PAYLOAD,2023-04-07 06:54:51,15.10504032,0.0001239,53.1727,140.0273,108.5237,251.589,0.00038393,6.109e-05,0.0,0 STARLINK-3674,1 51975U 22025V   23097.28809958  .00006109  00000-0  38393-3 0  9993,2 51975  53.1727 140.0273 0001239 108.5237 251.5890 15.10504032 61189,6912.799,95.332,535.52,533.807,0.0
51975.0,STARLINK-3674,PAYLOAD,2023-04-07 13:15:59,15.10498771,0.0001405,53.1717,138.8342,95.1326,264.9826,0.00052074,8.392e-05,0.0,0 STARLINK-3674,1 51975U 22025V   23097.55277034  .00008392  00000-0  52074-3 0  9995,2 51975  53.1717 138.8342 0001405  95.1326 264.9826 15.10498771 60116,6912.815,95.333,535.651,533.709,0.0
51975.0,STARLINK-3674,PAYLOAD,2023-04-07 19:37:06,15.1049395,0.0001488,53.1708,137.6414,84.6896,275.4266,0.00020683,3.154e-05,0.0,0 STARLINK-3674,1 51975U 22025V   23097.81744032  .00003154  00000-0  20683-3 0  9993,2 51975  53.1708 137.6414 0001488  84.6896 275.4266 15.10493950 61265,6912.83,95.333,535.723,533.666,0.0
51975.0,STARLINK-3674,PAYLOAD,2023-04-08 09:54:38,15.10500371,0.0001419,53.169,134.9593,89.0181,271.0974,0.00018875,2.853e-05,0.0,0 STARLINK-3674,1 51975U 22025V   23098.41294310  .00002853  00000-0  18875-3 0  9994,2 51975  53.1690 134.9593 0001419  89.0181 271.0974 15.10500371 60244,6912.81,95.333,535.656,533.694,0.0
51975.0,STARLINK-3674,PAYLOAD,2023-04-09 11:19:07,15.10504716,0.0001361,53.1675,130.1884,89.3491,270.7657,0.00022522,3.462e-05,0.0,0 STARLINK-3674,1 51975U 22025V   23099.47161421  .00003462  00000-0  22522-3 0  9998,2 51975  53.1675 130.1884 0001361  89.3491 270.7657 15.10504716 61513,6912.797,95.332,535.603,533.721,0.0
51975.0,STARLINK-3674,PAYLOAD,2023-04-09 14:29:41,15.10504708,0.000134,53.1669,129.5924,90.8723,269.2423,0.00020002,3.041e-05,0.0,0 STARLINK-3674,1 51975U 22025V   23099.60394775  .00003041  00000-0  20002-3 0  9997,2 51975  53.1669 129.5924 0001340  90.8723 269.2423 15.10504708 60429,6912.797,95.332,535.588,533.735,0.0
51975.0,STARLINK-3674,PAYLOAD,2023-04-10 01:36:40,15.10475239,6.44e-05,53.1686,127.5066,48.5926,311.5122,-0.00026237,-4.657e-05,0.0,0 STARLINK-3674,1 51975U 22025V   23100.06713132 -.00004657  00000-0 -26237-3 0  9994,2 51975  53.1686 127.5066 0000644  48.5926 311.5122 15.10475239 61608,6912.887,95.334,535.197,534.306,0.0
51975.0,STARLINK-3674,PAYLOAD,2023-04-10 07:57:47,15.10493844,0.0001413,53.1661,126.3123,100.0474,260.0677,0.00016304,2.424e-05,0.0,0 STARLINK-3674,1 51975U 22025V   23100.33179532  .00002424  00000-0  16304-3 0  9996,2 51975  53.1661 126.3123 0001413 100.0474 260.0677 15.10493844 60535,6912.83,95.333,535.672,533.718,0.0
51975.0,STARLINK-3674,PAYLOAD,2023-04-10 14:18:54,15.10490857,0.0001488,53.1648,125.1223,71.0302,289.0851,0.00031615,4.976e-05,0.0,0 STARLINK-3674,1 51975U 22025V   23100.59646831  .00004976  00000-0  31615-3 0  9991,2 51975  53.1648 125.1223 0001488  71.0302 289.0851 15.10490857 61680,6912.839,95.333,535.733,533.675,0.0
51975.0,STARLINK-3674,PAYLOAD,2023-04-10 19:04:45,15.10500436,0.0001459,53.1653,124.2269,79.5025,280.6131,0.00053273,8.593e-05,0.0,0 STARLINK-3674,1 51975U 22025V   23100.79496711  .00008593  00000-0  53273-3 0  9996,2 51975  53.1653 124.2269 0001459  79.5025 280.6131 15.10500436 60603,6912.81,95.333,535.683,533.666,0.0
51975.0,STARLINK-3674,PAYLOAD,2023-04-11 12:32:49,15.10525295,0.0001467,53.1645,120.9469,74.7026,285.4128,0.001002,0.0001645,0.0,0 STARLINK-3674,1 51975U 22025V   23101.52279766  .00016450  00000-0  10020-2 0  9990,2 51975  53.1645 120.9469 0001467  74.7026 285.4128 15.10525295 60717,6912.734,95.331,535.613,533.585,0.0
51975.0,STARLINK-3674,PAYLOAD,2023-04-12 12:22:02,15.10500429,0.0001576,53.1639,116.4725,101.2502,258.8667,0.0004191,6.696e-05,0.0,0 STARLINK-3674,1 51975U 22025V   23102.51530577  .00006696  00000-0  41910-3 0  9994,2 51975  53.1639 116.4725 0001576 101.2502 258.8667 15.10500429 60861,6912.81,95.333,535.764,533.585,0.0
51975.0,STARLINK-3674,PAYLOAD,2023-04-13 09:00:42,15.1048948,0.0001415,53.1638,112.599,87.8398,272.2756,0.00062626,0.00010152,0.0,0 STARLINK-3674,1 51975U 22025V   23103.37548851  .00010152  00000-0  62626-3 0  9992,2 51975  53.1638 112.5990 0001415  87.8398 272.2756 15.10489480 60991,6912.843,95.333,535.686,533.73,0.0
